[{"OBJECT_NAME":"ONEWEB-0400","OBJECT_ID":"2021-132M","EPOCH":"2026-03-09T20:07:00.465312","MEAN_MOTION":13.18686798,"ECCENTRICITY":0.00019702,"INCLINATION":87.9252,"RA_OF_ASC_NODE":355.1736,"ARG_OF_PERICENTER":77.7422,"MEAN_ANOMALY":282.3931,"EPHEMERIS_TYPE":0,"CLASSIFICATION_TYPE":"U","NORAD_CAT_ID":50480,"ELEMENT_SET_NO":999,"REV_AT_EPOCH":20851,"BSTAR":8.7639317e-5,"MEAN_MOTION_DOT":4.7e-7,"MEAN_MOTION_DDOT":0},{"OBJECT_NAME":"SL-8 R\/B","OBJECT_ID":"1972-019B","EPOCH":"2026-03-09T18:55:59.967264","MEAN_MOTION":13.22465033,"ECCENTRICITY":0.00219027,"INCLINATION":82.9705,"RA_OF_ASC_NODE":306.675,"ARG_OF_PERICENTER":105.9174,"MEAN_ANOMALY":323.551,"EPHEMERIS_TYPE":0,"CLASSIFICATION_TYPE":"U","NORAD_CAT_ID":5907,"ELEMENT_SET_NO":999,"REV_AT_EPOCH":60317,"BSTAR":0.00021534016,"MEAN_MOTION_DOT":1.03e-6,"MEAN_MOTION_DDOT":0}]
